CCSDS_OMM_VERS = 2.0
CREATION_DATE  = 
ORIGINATOR     = 

OBJECT_NAME    = STARLINK-35731
OBJECT_ID      = 2025-244Y
CENTER_NAME    = EARTH
REF_FRAME      = TEME
TIME_SYSTEM    = UTC
MEAN_ELEMENT_THEORY = SGP/SGP4

EPOCH          = 2025-11-21T14:50:26.145024
MEAN_MOTION    = 15.49343133
ECCENTRICITY   = .0001304
INCLINATION    = 53.1601
RA_OF_ASC_NODE = 15.4117
ARG_OF_PERICENTER = 91.6952
MEAN_ANOMALY   = 268.4206

EPHEMERIS_TYPE = 0
CLASSIFICATION_TYPE = U
NORAD_CAT_ID   = 66228
ELEMENT_SET_NO = 999
REV_AT_EPOCH   = 506
BSTAR          = .14265E-2
MEAN_MOTION_DOT = .79799E-3
MEAN_MOTION_DDOT = 0

CCSDS_OMM_VERS = 2.0
CREATION_DATE  = 
ORIGINATOR     = 

OBJECT_NAME    = STARLINK-35758
OBJECT_ID      = 2025-244Z
CENTER_NAME    = EARTH
REF_FRAME      = TEME
TIME_SYSTEM    = UTC
MEAN_ELEMENT_THEORY = SGP/SGP4

EPOCH          = 2025-11-21T14:49:56.559936
MEAN_MOTION    = 15.49346072
ECCENTRICITY   = .0001465
INCLINATION    = 53.1601
RA_OF_ASC_NODE = 15.4098
ARG_OF_PERICENTER = 87.7606
MEAN_ANOMALY   = 272.3571

EPHEMERIS_TYPE = 0
CLASSIFICATION_TYPE = U
NORAD_CAT_ID   = 66229
ELEMENT_SET_NO = 999
REV_AT_EPOCH   = 506
BSTAR          = .15623E-2
MEAN_MOTION_DOT = .87535E-3
MEAN_MOTION_DDOT = 0

CCSDS_OMM_VERS = 2.0
CREATION_DATE  = 
ORIGINATOR     = 

OBJECT_NAME    = STARLINK-35736
OBJECT_ID      = 2025-244AA
CENTER_NAME    = EARTH
REF_FRAME      = TEME
TIME_SYSTEM    = UTC
MEAN_ELEMENT_THEORY = SGP/SGP4

EPOCH          = 2025-11-21T14:49:26.882400
MEAN_MOTION    = 15.49339266
ECCENTRICITY   = .0001558
INCLINATION    = 53.1601
RA_OF_ASC_NODE = 15.4070
ARG_OF_PERICENTER = 82.6582
MEAN_ANOMALY   = 277.4604

EPHEMERIS_TYPE = 0
CLASSIFICATION_TYPE = U
NORAD_CAT_ID   = 66230
ELEMENT_SET_NO = 999
REV_AT_EPOCH   = 506
BSTAR          = .10836E-2
MEAN_MOTION_DOT = .60348E-3
MEAN_MOTION_DDOT = 0

CCSDS_OMM_VERS = 2.0
CREATION_DATE  = 
ORIGINATOR     = 

OBJECT_NAME    = STARLINK-35735
OBJECT_ID      = 2025-244AB
CENTER_NAME    = EARTH
REF_FRAME      = TEME
TIME_SYSTEM    = UTC
MEAN_ELEMENT_THEORY = SGP/SGP4

EPOCH          = 2025-11-21T14:48:55.874304
MEAN_MOTION    = 15.49382074
ECCENTRICITY   = .0001384
INCLINATION    = 53.1602
RA_OF_ASC_NODE = 15.4048
ARG_OF_PERICENTER = 81.6505
MEAN_ANOMALY   = 278.4661

EPHEMERIS_TYPE = 0
CLASSIFICATION_TYPE = U
NORAD_CAT_ID   = 66231
ELEMENT_SET_NO = 999
REV_AT_EPOCH   = 506
BSTAR          = .981E-3
MEAN_MOTION_DOT = .54634E-3
MEAN_MOTION_DDOT = 0

CCSDS_OMM_VERS = 2.0
CREATION_DATE  = 
ORIGINATOR     = 

OBJECT_NAME    = STARLINK-35753
OBJECT_ID      = 2025-244AC
CENTER_NAME    = EARTH
REF_FRAME      = TEME
TIME_SYSTEM    = UTC
MEAN_ELEMENT_THEORY = SGP/SGP4

EPOCH          = 2025-11-21T14:48:27.334656
MEAN_MOTION    = 15.49334468
ECCENTRICITY   = .0001321
INCLINATION    = 53.1602
RA_OF_ASC_NODE = 15.4036
ARG_OF_PERICENTER = 86.1493
MEAN_ANOMALY   = 273.9667

EPHEMERIS_TYPE = 0
CLASSIFICATION_TYPE = U
NORAD_CAT_ID   = 66232
ELEMENT_SET_NO = 999
REV_AT_EPOCH   = 506
BSTAR          = .10165E-2
MEAN_MOTION_DOT = .56546E-3
MEAN_MOTION_DDOT = 0

CCSDS_OMM_VERS = 2.0
CREATION_DATE  = 
ORIGINATOR     = 

OBJECT_NAME    = STARLINK-35626
OBJECT_ID      = 2025-244AD
CENTER_NAME    = EARTH
REF_FRAME      = TEME
TIME_SYSTEM    = UTC
MEAN_ELEMENT_THEORY = SGP/SGP4

EPOCH          = 2025-11-21T14:47:57.892128
MEAN_MOTION    = 15.49332217
ECCENTRICITY   = .0001501
INCLINATION    = 53.1603
RA_OF_ASC_NODE = 15.4009
ARG_OF_PERICENTER = 81.8726
MEAN_ANOMALY   = 278.2454

EPHEMERIS_TYPE = 0
CLASSIFICATION_TYPE = U
NORAD_CAT_ID   = 66233
ELEMENT_SET_NO = 999
REV_AT_EPOCH   = 506
BSTAR          = .88383E-3
MEAN_MOTION_DOT = .49056E-3
MEAN_MOTION_DDOT = 0

CCSDS_OMM_VERS = 2.0
CREATION_DATE  = 
ORIGINATOR     = 

OBJECT_NAME    = STARLINK-35537
OBJECT_ID      = 2025-245A
CENTER_NAME    = EARTH
REF_FRAME      = TEME
TIME_SYSTEM    = UTC
MEAN_ELEMENT_THEORY = SGP/SGP4

EPOCH          = 2025-11-21T22:00:03.000096
MEAN_MOTION    = 15.47363362
ECCENTRICITY   = .0001521
INCLINATION    = 53.1606
RA_OF_ASC_NODE = 67.8530
ARG_OF_PERICENTER = 81.4331
MEAN_ANOMALY   = 99.8250

EPHEMERIS_TYPE = 0
CLASSIFICATION_TYPE = U
NORAD_CAT_ID   = 66234
ELEMENT_SET_NO = 999
REV_AT_EPOCH   = 475
BSTAR          = -.45128E-1
MEAN_MOTION_DOT = -.2083068E-1
MEAN_MOTION_DDOT = 0

CCSDS_OMM_VERS = 2.0
CREATION_DATE  = 
ORIGINATOR     = 

OBJECT_NAME    = STARLINK-35541
OBJECT_ID      = 2025-245B
CENTER_NAME    = EARTH
REF_FRAME      = TEME
TIME_SYSTEM    = UTC
MEAN_ELEMENT_THEORY = SGP/SGP4

EPOCH          = 2025-11-21T22:00:03.000096
MEAN_MOTION    = 15.47354735
ECCENTRICITY   = .000143
INCLINATION    = 53.1608
RA_OF_ASC_NODE = 67.8484
ARG_OF_PERICENTER = 74.8958
MEAN_ANOMALY   = 108.2585

EPHEMERIS_TYPE = 0
CLASSIFICATION_TYPE = U
NORAD_CAT_ID   = 66235
ELEMENT_SET_NO = 999
REV_AT_EPOCH   = 470
BSTAR          = -.45154E-1
MEAN_MOTION_DOT = -.208351E-1
MEAN_MOTION_DDOT = 0

CCSDS_OMM_VERS = 2.0
CREATION_DATE  = 
ORIGINATOR     = 

OBJECT_NAME    = STARLINK-35454
OBJECT_ID      = 2025-245C
CENTER_NAME    = EARTH
REF_FRAME      = TEME
TIME_SYSTEM    = UTC
MEAN_ELEMENT_THEORY = SGP/SGP4

EPOCH          = 2025-11-21T22:00:03.000096
MEAN_MOTION    = 15.49765840
ECCENTRICITY   = .0001295
INCLINATION    = 53.1609
RA_OF_ASC_NODE = 67.8403
ARG_OF_PERICENTER = 82.0520
MEAN_ANOMALY   = 104.5389

EPHEMERIS_TYPE = 0
CLASSIFICATION_TYPE = U
NORAD_CAT_ID   = 66236
ELEMENT_SET_NO = 999
REV_AT_EPOCH   = 459
BSTAR          = -.29851E-1
MEAN_MOTION_DOT = -.1525652E-1
MEAN_MOTION_DDOT = 0

CCSDS_OMM_VERS = 2.0
CREATION_DATE  = 
ORIGINATOR     = 

OBJECT_NAME    = STARLINK-35557
OBJECT_ID      = 2025-245D
CENTER_NAME    = EARTH
REF_FRAME      = TEME
TIME_SYSTEM    = UTC
MEAN_ELEMENT_THEORY = SGP/SGP4

EPOCH          = 2025-11-21T22:00:03.000096
MEAN_MOTION    = 15.49735990
ECCENTRICITY   = .0001425
INCLINATION    = 53.1608
RA_OF_ASC_NODE = 67.8360
ARG_OF_PERICENTER = 92.4566
MEAN_ANOMALY   = 96.0505

EPHEMERIS_TYPE = 0
CLASSIFICATION_TYPE = U
NORAD_CAT_ID   = 66237
ELEMENT_SET_NO = 999
REV_AT_EPOCH   = 475
BSTAR          = -.28924E-1
MEAN_MOTION_DOT = -.1481254E-1
MEAN_MOTION_DDOT = 0

CCSDS_OMM_VERS = 2.0
CREATION_DATE  = 
ORIGINATOR     = 

OBJECT_NAME    = STARLINK-35556
OBJECT_ID      = 2025-245E
CENTER_NAME    = EARTH
REF_FRAME      = TEME
TIME_SYSTEM    = UTC
MEAN_ELEMENT_THEORY = SGP/SGP4

EPOCH          = 2025-11-21T22:00:03.000096
MEAN_MOTION    = 15.49272492
ECCENTRICITY   = .0000876
INCLINATION    = 53.1609
RA_OF_ASC_NODE = 67.8317
ARG_OF_PERICENTER = 60.1920
MEAN_ANOMALY   = 130.3091

EPHEMERIS_TYPE = 0
CLASSIFICATION_TYPE = U
NORAD_CAT_ID   = 66238
ELEMENT_SET_NO = 999
REV_AT_EPOCH   = 475
BSTAR          = .93303E-3
MEAN_MOTION_DOT = .5172E-3
MEAN_MOTION_DDOT = 0

CCSDS_OMM_VERS = 2.0
CREATION_DATE  = 
ORIGINATOR     = 

OBJECT_NAME    = STARLINK-35554
OBJECT_ID      = 2025-245F
CENTER_NAME    = EARTH
REF_FRAME      = TEME
TIME_SYSTEM    = UTC
MEAN_ELEMENT_THEORY = SGP/SGP4

EPOCH          = 2025-11-21T22:00:03.000096
MEAN_MOTION    = 15.49273332
ECCENTRICITY   = .0001067
INCLINATION    = 53.1608
RA_OF_ASC_NODE = 67.8278
ARG_OF_PERICENTER = 58.5484
MEAN_ANOMALY   = 133.8672

EPHEMERIS_TYPE = 0
CLASSIFICATION_TYPE = U
NORAD_CAT_ID   = 66239
ELEMENT_SET_NO = 999
REV_AT_EPOCH   = 459
BSTAR          = .12689E-2
MEAN_MOTION_DOT = .70673E-3
MEAN_MOTION_DDOT = 0

