STARLINK-35731          
1 66228U 25244Y   25325.61835816  .00079799  00000+0  14265-2 0  9996
2 66228  53.1601  15.4117 0001304  91.6952 268.4206 15.49343133  5066
STARLINK-35758          
1 66229U 25244Z   25325.61801574  .00087535  00000+0  15623-2 0  9997
2 66229  53.1601  15.4098 0001465  87.7606 272.3571 15.49346072  5069
STARLINK-35736          
1 66230U 25244AA  25325.61767225  .00060348  00000+0  10836-2 0  9997
2 66230  53.1601  15.4070 0001558  82.6582 277.4604 15.49339266  5061
STARLINK-35735          
1 66231U 25244AB  25325.61731336  .00054634  00000+0  98100-3 0  9994
2 66231  53.1602  15.4048 0001384  81.6505 278.4661 15.49382074  5068
STARLINK-35753          
1 66232U 25244AC  25325.61698304  .00056546  00000+0  10165-2 0  9990
2 66232  53.1602  15.4036 0001321  86.1493 273.9667 15.49334468  5063
STARLINK-35626          
1 66233U 25244AD  25325.61664227  .00049056  00000+0  88383-3 0  9994
2 66233  53.1603  15.4009 0001501  81.8726 278.2454 15.49332217  5068
STARLINK-35537          
1 66234U 25245A   25325.91670139 -.02083068  00000+0 -45128-1 0  9991
2 66234  53.1606  67.8530 0001521  81.4331  99.8250 15.47363362  4751
STARLINK-35541          
1 66235U 25245B   25325.91670139 -.02083510  00000+0 -45154-1 0  9993
2 66235  53.1608  67.8484 0001430  74.8958 108.2585 15.47354735  4707
STARLINK-35454          
1 66236U 25245C   25325.91670139 -.01525652  00000+0 -29851-1 0  9997
2 66236  53.1609  67.8403 0001295  82.0520 104.5389 15.49765840  4598
STARLINK-35557          
1 66237U 25245D   25325.91670139 -.01481254  00000+0 -28924-1 0  9997
2 66237  53.1608  67.8360 0001425  92.4566  96.0505 15.49735990  4756
STARLINK-35556          
1 66238U 25245E   25325.91670139  .00051720  00000+0  93303-3 0  9991
2 66238  53.1609  67.8317 0000876  60.1920 130.3091 15.49272492  4750
STARLINK-35554          
1 66239U 25245F   25325.91670139  .00070673  00000+0  12689-2 0  9997
2 66239  53.1608  67.8278 0001067  58.5484 133.8672 15.49273332  4594
